[{"OBJECT_NAME":"STARLINK-1500","OBJECT_ID":"2020-038Q","EPOCH":"2026-03-09T14:42:05.855328","MEAN_MOTION":15.34798508,"ECCENTRICITY":0.0001932,"INCLINATION":53.0377,"RA_OF_ASC_NODE":193.1151,"ARG_OF_PERICENTER":252.7166,"MEAN_ANOMALY":107.3624,"EPHEMERIS_TYPE":0,"CLASSIFICATION_TYPE":"U","NORAD_CAT_ID":45744,"ELEMENT_SET_NO":999,"REV_AT_EPOCH":31680,"BSTAR":0.0008861,"MEAN_MOTION_DOT":0.00030067,"MEAN_MOTION_DDOT":0},{"OBJECT_NAME":"OBJECT C","OBJECT_ID":"2022-089C","EPOCH":"2026-03-09T17:47:21.026976","MEAN_MOTION":15.35935984,"ECCENTRICITY":0.0003051,"INCLINATION":97.2267,"RA_OF_ASC_NODE":166.2276,"ARG_OF_PERICENTER":174.1985,"MEAN_ANOMALY":185.9295,"EPHEMERIS_TYPE":0,"CLASSIFICATION_TYPE":"U","NORAD_CAT_ID":64627,"ELEMENT_SET_NO":999,"REV_AT_EPOCH":3935,"BSTAR":0.00035082,"MEAN_MOTION_DOT":0.000122,"MEAN_MOTION_DDOT":0}]
